RESURS-DK 1             
1 29228U 06021A   26199.56535780  .00000867  00000+0  54664-4 0  9997
2 29228  69.9303 258.3198 0007303 267.3280  92.7050 15.13325666107326
RADARSAT-2              
1 32382U 07061A   26199.87455532 -.00000204  00000+0 -62056-4 0  9998
2 32382  98.5783 206.3549 0001329  85.0497 275.0837 14.29982948970483
RESOURCESAT-2           
1 37387U 11015A   26199.83168088  .00000025  00000+0  31720-4 0  9998
2 37387  98.7629 267.0522 0011769 160.9807 199.1811 14.21600063790672
RASAT                   
1 37791U 11044D   26199.87747203  .00000229  00000+0  48163-4 0  9990
2 37791  98.0580 290.7912 0021963  91.7275  18.2218 14.68194863797837
RESOURCESAT-2A          
1 41877U 16074A   26199.81326743  .00000177  00000+0  10097-3 0  9990
2 41877  98.7515 273.0574 0002178  19.5923 340.5337 14.21609994498796
RCM-1                   
1 44322U 19033A   26199.86623964  .00000440  00000+0  48223-4 0  9992
2 44322  97.7604 206.8659 0001512  92.9107  26.0085 14.92590107386807
RCM-3                   
1 44323U 19033B   26199.86672708 -.00000284  00000+0 -22161-4 0  9994
2 44323  97.7602 206.9606 0001512  92.6291 267.5102 14.92588344386824
RCM-2                   
1 44324U 19033C   26199.82189679  .00000399  00000+0  44194-4 0  9996
2 44324  97.7605 206.8669 0001535  91.9207 268.2188 14.92589636386805
QPS-SAR-8 (AMATERU-IV)  
1 60542U 24149CC  26199.78986917  .00001889  00000+0  13968-3 0  9994
2 60542  97.6646 278.6793 0003203  31.1422 328.9993 15.04409378105022
QPS-SAR-9 (SUSANOO-I)   
1 63205U 25050A   26199.61134308  .00002016  00000+0  15939-3 0  9999
2 63205  42.0196 288.5558 0004827 342.9582  17.1083 15.03411449 73692
